IRIDIUM 144             
1 43249U 18030A   25267.76138119  .00000096  00000+0  27259-4 0  9995
2 43249  86.3977  41.3428 0002155  90.8885 269.2557 14.34218230392094
IRIDIUM 149             
1 43250U 18030B   25267.83749083  .00000177  00000+0  56204-4 0  9995
2 43250  86.3975  41.2808 0002097  89.3460 270.7976 14.34217501392128
IRIDIUM 157             
1 43251U 18030C   25267.85651777  .00000129  00000+0  39157-4 0  9995
2 43251  86.3976  41.3203 0001916  95.4565 264.6849 14.34218891392105
IRIDIUM 140             
1 43252U 18030D   25267.87554749  .00000114  00000+0  33466-4 0  9990
2 43252  86.3975  41.3255 0002246  90.5332 269.6122 14.34218581392168
IRIDIUM 145             
1 43253U 18030E   25267.86285822  .00000513  00000+0  17612-3 0  9990
2 43253  86.3971  41.3035 0002218  82.2624 277.8824 14.34216388392097
IRIDIUM 146             
1 43254U 18030F   25267.84383531 -.00000011  00000+0 -10846-4 0  9993
2 43254  86.3972  41.3250 0002120  84.8614 275.2824 14.34217706392106
IRIDIUM 148             
1 43255U 18030G   25267.88188888  .00000192  00000+0  61454-4 0  9995
2 43255  86.3977  41.3479 0001957  90.7305 269.4115 14.34219036392145
IRIDIUM 142             
1 43256U 18030H   25267.85017780  .00000079  00000+0  20977-4 0  9994
2 43256  86.3973  41.2596 0002253  80.6966 279.4485 14.34218160392106
